ONEWEB-0162             
1 48056U 21025Q   26187.40280542 -.00000004  00000+0 -46713-4 0  9992
2 48056  87.8974 316.3992 0001939  94.4033 265.7318 13.13469858256065
ONEWEB-0155             
1 48057U 21025R   26187.33357154  .00004788  00000+0  13074-1 0  9991
2 48057  87.8977 316.4096 0001935 100.1687 259.9660 13.13450519256194
ONEWEB-0149             
1 48058U 21025S   26187.43172333  .00000326  00000+0  85910-3 0  9991
2 48058  87.8981 316.3939 0001941  93.2091 266.9260 13.13468720256011
ONEWEB-0148             
1 48059U 21025T   26187.39447043 -.00000148  00000+0 -43976-3 0  9990
2 48059  87.8972 316.4071 0002158  84.4791 275.6584 13.13469659256131
ONEWEB-0160             
1 48060U 21025U   26187.71610896 -.00000049  00000+0 -17001-3 0  9996
2 48060  87.8972 316.3390 0001180 106.0948 254.0311 13.13468721256122
ONEWEB-0163             
1 48061U 21025V   26187.70087228 -.00000189  00000+0 -55159-3 0  9994
2 48061  87.8982 316.3379 0002196 100.0276 260.1101 13.13469712256246
ONEWEB-0159             
1 48062U 21025W   26187.84476444 -.00000265  00000+0 -75987-3 0  9998
2 48062  87.8982 316.3033 0002158 100.5970 259.5402 13.13469408256189
ONEWEB-0164             
1 48063U 21025X   26187.36907689  .00000022  00000+0  26484-4 0  9994
2 48063  87.8983 316.4041 0001819 100.1694 259.9641 13.13468888256105
ONEWEB-0167             
1 48064U 21025Y   26187.39701755 -.00000092  00000+0 -28595-3 0  9997
2 48064  87.8969 316.4066 0002372 113.1224 247.0155 13.13470090256099
ONEWEB-0166             
1 48065U 21025Z   26187.34369455  .00000372  00000+0  98253-3 0  9997
2 48065  87.8981 316.3906 0001931  97.5355 262.5994 13.13469337256169
ONEWEB-0151             
1 48066U 21025AA  26187.72626676  .00000343  00000+0  90406-3 0  9991
2 48066  87.8976 316.3299 0001940 102.5820 257.5526 13.13469567256152
ONEWEB-0170             
1 48067U 21025AB  26187.35383775  .00000298  00000+0  78117-3 0  9995
2 48067  87.8979 316.4062 0001571 114.3058 245.8235 13.13469066256060
ONEWEB-0168             
1 48068U 21025AC  26187.71949427  .00000204  00000+0  52338-3 0  9992
2 48068  87.8980 316.3341 0001946 100.3192 259.8157 13.13469567256123
ONEWEB-0173             
1 48069U 21025AD  26187.40632157  .00000032  00000+0  53733-4 0  9998
2 48069  87.8973 316.3969 0002247 103.3801 256.7579 13.13469975256326
ONEWEB-0171             
1 48070U 21025AE  26187.36738310  .00000094  00000+0  22279-3 0  9991
2 48070  87.8973 316.4121 0001892 102.3456 257.7885 13.13468616256130
ONEWEB-0172             
1 48071U 21025AF  26187.42325405  .00000346  00000+0  91222-3 0  9990
2 48071  87.8980 316.3921 0002022 103.9253 256.2101 13.13470416257030
ONEWEB-0174             
1 48072U 21025AG  26187.32845330 -.00000008  00000+0 -57104-4 0  9993
2 48072  87.8980 316.4100 0001996  95.3789 264.7568 13.13469571256342
ONEWEB-0175             
1 48073U 21025AH  26187.43510084  .00000233  00000+0  60203-3 0  9992
2 48073  87.8985 316.3741 0001892 109.8034 250.3299 13.13468518256013
ONEWEB-0177             
1 48074U 21025AJ  26187.37077284 -.00000033  00000+0 -12431-3 0  9996
2 48074  87.8980 316.4047 0002108  96.4852 263.6517 13.13469404256193
ONEWEB-0178             
1 48075U 21025AK  26187.84660084 -.00000244  00000+0 -70302-3 0  9990
2 48075  87.8969 316.3205 0002055 105.3106 254.8250 13.13470336256304
ONEWEB-0108             
1 48076U 21025AL  26187.34876751  .00000369  00000+0  97440-3 0  9994
2 48076  87.8984 316.4012 0001760  94.1685 265.9645 13.13469453256161
ONEWEB-0169             
1 48077U 21025AM  26187.83799244 -.00000220  00000+0 -63723-3 0  9995
2 48077  87.8975 316.3102 0001955  94.8805 265.2547 13.13468833254880
ONEWEB-0176             
1 48210U 21031A   26187.66514132  .00000041  00000+0  77238-4 0  9999
2 48210  87.8972 285.8182 0002057 102.2130 257.9230 13.14502052250878
ONEWEB-0184             
1 48211U 21031B   26187.71430384  .00000156  00000+0  38589-3 0  9994
2 48211  87.8978 285.8104 0002362 119.9469 240.1895 13.14502103250854
ONEWEB-0179             
1 48212U 21031C   26187.67938839  .00000360  00000+0  11170-3 0  9992
2 48212  87.8995 282.2817 0220535 193.1849 166.3524 14.25542947251825
ONEWEB-0180             
1 48213U 21031D   26187.71748221  .00000174  00000+0  43407-3 0  9993
2 48213  87.8981 285.8061 0002443 104.0306 256.1096 13.14502579250786
ONEWEB-0218             
1 48214U 21031E   26187.66356203  .00000007  00000+0 -15858-4 0  9999
2 48214  87.8981 285.8163 0002630 116.7866 243.3533 13.14502545250933
ONEWEB-0209             
1 48215U 21031F   26187.72858738  .00000208  00000+0  52779-3 0  9991
2 48215  87.8971 285.8186 0002238  98.2770 261.8614 13.14502981250940
ONEWEB-0198             
1 48216U 21031G   26187.71286126  .00000153  00000+0  37869-3 0  9999
2 48216  87.8962 285.8194 0002429 104.5030 255.6369 13.14502807251050
ONEWEB-0189             
1 48217U 21031H   26187.72540578  .00000197  00000+0  49606-3 0  9995
2 48217  87.8977 285.8049 0002326 105.3717 254.7670 13.14502321250799
