OBJECT_NAME,OBJECT_ID,EPOCH,MEAN_MOTION,ECCENTRICITY,INCLINATION,RA_OF_ASC_NODE,ARG_OF_PERICENTER,MEAN_ANOMALY,EPHEMERIS_TYPE,CLASSIFICATION_TYPE,NORAD_CAT_ID,ELEMENT_SET_NO,REV_AT_EPOCH,BSTAR,MEAN_MOTION_DOT,MEAN_MOTION_DDOT
ONEWEB-0162,2021-025Q,2026-07-06T09:40:02.388288,13.13469858,.0001939,87.8974,316.3992,94.4033,265.7318,0,U,48056,999,25606,-.46713E-4,-.4E-7,0
ONEWEB-0155,2021-025R,2026-07-06T08:00:20.581056,13.13450519,.00019357,87.8977,316.4096,100.1687,259.9660,0,U,48057,999,25619,.13073874E-1,.4788E-4,0
ONEWEB-0149,2021-025S,2026-07-06T10:21:40.895712,13.13468720,.0001941,87.8981,316.3939,93.2091,266.9260,0,U,48058,999,25601,.8591E-3,.326E-5,0
ONEWEB-0148,2021-025T,2026-07-06T09:28:02.245152,13.13469659,.00021585,87.8972,316.4071,84.4791,275.6584,0,U,48059,999,25613,-.43976277E-3,-.148E-5,0
ONEWEB-0160,2021-025U,2026-07-06T17:11:11.814144,13.13468721,.000118,87.8972,316.3390,106.0948,254.0311,0,U,48060,999,25612,-.17001E-3,-.49E-6,0
ONEWEB-0163,2021-025V,2026-07-06T16:49:15.364992,13.13469712,.0002196,87.8982,316.3379,100.0276,260.1101,0,U,48061,999,25624,-.55159E-3,-.189E-5,0
ONEWEB-0159,2021-025W,2026-07-06T20:16:27.647616,13.13469408,.0002158,87.8982,316.3033,100.5970,259.5402,0,U,48062,999,25618,-.75987E-3,-.265E-5,0
ONEWEB-0164,2021-025X,2026-07-06T08:51:28.243296,13.13468888,.00018194,87.8983,316.4041,100.1694,259.9641,0,U,48063,999,25610,.26484173E-4,.22E-6,0
ONEWEB-0167,2021-025Y,2026-07-06T09:31:42.316320,13.13470090,.0002372,87.8969,316.4066,113.1224,247.0155,0,U,48064,999,25609,-.28595E-3,-.92E-6,0
ONEWEB-0166,2021-025Z,2026-07-06T08:14:55.209120,13.13469337,.00019311,87.8981,316.3906,97.5355,262.5994,0,U,48065,999,25616,.98253208E-3,.372E-5,0
ONEWEB-0151,2021-025AA,2026-07-06T17:25:49.448064,13.13469567,.000194,87.8976,316.3299,102.5820,257.5526,0,U,48066,999,25615,.90406E-3,.343E-5,0
ONEWEB-0170,2021-025AB,2026-07-06T08:29:31.581600,13.13469066,.00015711,87.8979,316.4062,114.3058,245.8235,0,U,48067,999,25606,.78116525E-3,.298E-5,0
ONEWEB-0168,2021-025AC,2026-07-06T17:16:04.304928,13.13469567,.0001946,87.8980,316.3341,100.3192,259.8157,0,U,48068,999,25612,.52338E-3,.204E-5,0
ONEWEB-0173,2021-025AD,2026-07-06T09:45:06.183648,13.13469975,.0002247,87.8973,316.3969,103.3801,256.7579,0,U,48069,999,25632,.53733E-4,.32E-6,0
ONEWEB-0171,2021-025AE,2026-07-06T08:49:01.899840,13.13468616,.00018929,87.8973,316.4121,102.3456,257.7885,0,U,48070,999,25613,.22279004E-3,.94E-6,0
ONEWEB-0172,2021-025AF,2026-07-06T10:09:29.149920,13.13470416,.0002022,87.8980,316.3921,103.9253,256.2101,0,U,48071,999,25703,.91222E-3,.346E-5,0
ONEWEB-0174,2021-025AG,2026-07-06T07:52:58.365120,13.13469571,.00019969,87.8980,316.4100,95.3789,264.7568,0,U,48072,999,25634,-.57103579E-4,-.8E-7,0
ONEWEB-0175,2021-025AH,2026-07-06T10:26:32.712576,13.13468518,.0001892,87.8985,316.3741,109.8034,250.3299,0,U,48073,999,25601,.60203E-3,.233E-5,0
ONEWEB-0177,2021-025AJ,2026-07-06T08:53:54.773376,13.13469404,.00021086,87.8980,316.4047,96.4852,263.6517,0,U,48074,999,25619,-.12430535E-3,-.33E-6,0
ONEWEB-0178,2021-025AK,2026-07-06T20:19:06.312576,13.13470336,.0002055,87.8969,316.3205,105.3106,254.8250,0,U,48075,999,25630,-.70302E-3,-.244E-5,0
ONEWEB-0108,2021-025AL,2026-07-06T08:22:13.512864,13.13469453,.00017604,87.8984,316.4012,94.1685,265.9645,0,U,48076,999,25616,.97440344E-3,.369E-5,0
ONEWEB-0169,2021-025AM,2026-07-06T20:06:42.546816,13.13468833,.0001955,87.8975,316.3102,94.8805,265.2547,0,U,48077,999,25488,-.63723E-3,-.22E-5,0
ONEWEB-0176,2021-031A,2026-07-06T15:57:48.210048,13.14502052,.0002057,87.8972,285.8182,102.2130,257.9230,0,U,48210,999,25087,.77238E-4,.41E-6,0
ONEWEB-0184,2021-031B,2026-07-06T17:08:35.851776,13.14502103,.0002362,87.8978,285.8104,119.9469,240.1895,0,U,48211,999,25085,.38589E-3,.156E-5,0
ONEWEB-0179,2021-031C,2026-07-06T16:18:19.156896,14.25542947,.0220535,87.8995,282.2817,193.1849,166.3524,0,U,48212,999,25182,.1117E-3,.36E-5,0
ONEWEB-0180,2021-031D,2026-07-06T17:13:10.462944,13.14502579,.0002443,87.8981,285.8061,104.0306,256.1096,0,U,48213,999,25078,.43407E-3,.174E-5,0
ONEWEB-0218,2021-031E,2026-07-06T15:55:31.759392,13.14502545,.000263,87.8981,285.8163,116.7866,243.3533,0,U,48214,999,25093,-.15858E-4,.7E-7,0
ONEWEB-0209,2021-031F,2026-07-06T17:29:09.949632,13.14502981,.0002238,87.8971,285.8186,98.2770,261.8614,0,U,48215,999,25094,.52779E-3,.208E-5,0
ONEWEB-0198,2021-031G,2026-07-06T17:06:31.212864,13.14502807,.0002429,87.8962,285.8194,104.5030,255.6369,0,U,48216,999,25105,.37869E-3,.153E-5,0
ONEWEB-0189,2021-031H,2026-07-06T17:24:35.059392,13.14502321,.0002326,87.8977,285.8049,105.3717,254.7670,0,U,48217,999,25079,.49606E-3,.197E-5,0
